start=new Date('2022-07-19T00:00:00.000Z').valueOf();
sats=[{"DECAY_DATE":null,"REV_AT_EPOCH":"4797","REF_FRAME":"TEME","RCS_SIZE":"LARGE","NORAD_CAT_ID":"49149","MEAN_ANOMALY":"96.8628","GP_ID":"208408630","CLASSIFICATION_TYPE":"U","BSTAR":"-0.00007180000000","ECCENTRICITY":"0.00029120","LAUNCH_DATE":"2021-09-14","SEMIMAJOR_AXIS":"6950.190","CENTER_NAME":"EARTH","MEAN_MOTION_DDOT":"0.0000000000000","TIME_SYSTEM":"UTC","EPOCH":"2022-07-18T20:08:31.212960","MEAN_MOTION_DOT":"-0.00000950","PERIAPSIS":"570.031","PERIOD":"96.107","RA_OF_ASC_NODE":"47.4709","EPHEMERIS_TYPE":"0","SITE":"AFWTR","TLE_LINE1":"1 49149U 21082V   22199.83925015 -.00000950  00000-0 -71800-4 0  9992","OBJECT_NAME":"STARLINK-3053","OBJECT_TYPE":"PAYLOAD","TLE_LINE2":"2 49149  70.0006  47.4709 0002912 263.2200  96.8628 14.98330943 47972","INCLINATION":"70.0006","FILE":"3517175","ARG_OF_PERICENTER":"263.2200","OBJECT_ID":"2021-082V","MEAN_ELEMENT_THEORY":"SGP4","ELEMENT_SET_NO":"999","APOAPSIS":"574.079","MEAN_MOTION":"14.98330943","COUNTRY_CODE":"US"},{"APOAPSIS":"574.180","ELEMENT_SET_NO":"999","FILE":"3517175","ARG_OF_PERICENTER":"262.3730","MEAN_ELEMENT_THEORY":"SGP4","OBJECT_ID":"2021-082W","INCLINATION":"70.0003","COUNTRY_CODE":"US","MEAN_MOTION":"14.98335989","TLE_LINE1":"1 49150U 21082W   22199.83448520  .00000711  00000-0  67337-4 0  9998","OBJECT_TYPE":"PAYLOAD","OBJECT_NAME":"STARLINK-3104","TLE_LINE2":"2 49150  70.0003  47.4855 0003080 262.3730  97.7079 14.98335989 47973","EPOCH":"2022-07-18T20:01:39.521280","TIME_SYSTEM":"UTC","MEAN_MOTION_DOT":"0.00000711","MEAN_MOTION_DDOT":"0.0000000000000","CENTER_NAME":"EARTH","LAUNCH_DATE":"2021-09-14","ECCENTRICITY":"0.00030800","SEMIMAJOR_AXIS":"6950.174","EPHEMERIS_TYPE":"0","SITE":"AFWTR","PERIOD":"96.107","RA_OF_ASC_NODE":"47.4855","PERIAPSIS":"569.899","RCS_SIZE":"LARGE","REF_FRAME":"TEME","DECAY_DATE":null,"REV_AT_EPOCH":"4797","BSTAR":"0.00006733700000","CLASSIFICATION_TYPE":"U","GP_ID":"208407391","MEAN_ANOMALY":"97.7079","NORAD_CAT_ID":"49150"},{"MEAN_MOTION_DOT":"0.00009768","EPOCH":"2022-07-18T19:59:28.658976","TIME_SYSTEM":"UTC","MEAN_MOTION_DDOT":"0.0000000000000","CENTER_NAME":"EARTH","ECCENTRICITY":"0.00030450","LAUNCH_DATE":"2021-09-14","SEMIMAJOR_AXIS":"6955.315","SITE":"AFWTR","EPHEMERIS_TYPE":"0","RA_OF_ASC_NODE":"6.9956","PERIOD":"96.213","PERIAPSIS":"575.062","REF_FRAME":"TEME","RCS_SIZE":"LARGE","DECAY_DATE":null,"REV_AT_EPOCH":"4897","BSTAR":"0.00086110000000","GP_ID":"208407641","CLASSIFICATION_TYPE":"U","MEAN_ANOMALY":"98.7283","NORAD_CAT_ID":"49151","APOAPSIS":"579.298","ELEMENT_SET_NO":"999","MEAN_ELEMENT_THEORY":"SGP4","OBJECT_ID":"2021-082X","ARG_OF_PERICENTER":"261.3531","FILE":"3517175","INCLINATION":"69.9985","COUNTRY_CODE":"US","MEAN_MOTION":"14.96675166","OBJECT_TYPE":"PAYLOAD","OBJECT_NAME":"STARLINK-3102","TLE_LINE1":"1 49151U 21082X   22199.83297059  .00009768  00000-0  86110-3 0  9998","TLE_LINE2":"2 49151  69.9985   6.9956 0003045 261.3531  98.7283 14.96675166 48972"},{"SEMIMAJOR_AXIS":"6955.164","LAUNCH_DATE":"2021-09-14","ECCENTRICITY":"0.00034830","CENTER_NAME":"EARTH","MEAN_MOTION_DDOT":"0.0000000000000","TIME_SYSTEM":"UTC","EPOCH":"2022-07-18T20:59:38.997024","MEAN_MOTION_DOT":"-0.00000418","PERIAPSIS":"574.607","PERIOD":"96.210","RA_OF_ASC_NODE":"6.8721","EPHEMERIS_TYPE":"0","SITE":"AFWTR","DECAY_DATE":null,"REV_AT_EPOCH":"4890","REF_FRAME":"TEME","RCS_SIZE":"LARGE","NORAD_CAT_ID":"49152","MEAN_ANOMALY":"99.7262","GP_ID":"208408892","CLASSIFICATION_TYPE":"U","BSTAR":"-0.00002847900000","INCLINATION":"69.9991","ARG_OF_PERICENTER":"260.3503","FILE":"3517175","MEAN_ELEMENT_THEORY":"SGP4","OBJECT_ID":"2021-082Y","ELEMENT_SET_NO":"999","APOAPSIS":"579.452","MEAN_MOTION":"14.96723860","COUNTRY_CODE":"US","TLE_LINE1":"1 49152U 21082Y   22199.87475691 -.00000418  00000-0 -28479-4 0  9993","OBJECT_TYPE":"PAYLOAD","OBJECT_NAME":"STARLINK-3081","TLE_LINE2":"2 49152  69.9991   6.8721 0003483 260.3503  99.7262 14.96723860 48909"},{"PERIAPSIS":"574.898","RA_OF_ASC_NODE":"6.8584","PERIOD":"96.211","SITE":"AFWTR","EPHEMERIS_TYPE":"0","ECCENTRICITY":"0.00031240","LAUNCH_DATE":"2021-09-14","SEMIMAJOR_AXIS":"6955.206","CENTER_NAME":"EARTH","MEAN_MOTION_DDOT":"0.0000000000000","MEAN_MOTION_DOT":"-0.00000200","EPOCH":"2022-07-18T21:21:38.972160","TIME_SYSTEM":"UTC","NORAD_CAT_ID":"49153","MEAN_ANOMALY":"92.5339","CLASSIFICATION_TYPE":"U","GP_ID":"208409130","BSTAR":"-0.00000948440000","REV_AT_EPOCH":"4899","DECAY_DATE":null,"RCS_SIZE":"LARGE","REF_FRAME":"TEME","MEAN_MOTION":"14.96710292","COUNTRY_CODE":"US","INCLINATION":"69.9998","MEAN_ELEMENT_THEORY":"SGP4","OBJECT_ID":"2021-082Z","FILE":"3517175","ARG_OF_PERICENTER":"267.5462","ELEMENT_SET_NO":"999","APOAPSIS":"579.244","TLE_LINE2":"2 49153  69.9998   6.8584 0003124 267.5462  92.5339 14.96710292 48999","OBJECT_NAME":"STARLINK-3072","OBJECT_TYPE":"PAYLOAD","TLE_LINE1":"1 49153U 21082Z   22199.89003440 -.00000200  00000-0 -94844-5 0  9994"},{"TLE_LINE2":"2 49154  69.9984  27.0793 0003092 258.2401 101.8410 14.96723555 48367","OBJECT_NAME":"STARLINK-3068","OBJECT_TYPE":"PAYLOAD","TLE_LINE1":"1 49154U 21082AA  22199.89367999 -.00000018  00000-0  63895-5 0  9995","COUNTRY_CODE":"US","MEAN_MOTION":"14.96723555","ELEMENT_SET_NO":"999","APOAPSIS":"579.181","INCLINATION":"69.9984","MEAN_ELEMENT_THEORY":"SGP4","OBJECT_ID":"2021-082AA","FILE":"3517175","ARG_OF_PERICENTER":"258.2401","GP_ID":"208407891","CLASSIFICATION_TYPE":"U","BSTAR":"0.00000638950000","NORAD_CAT_ID":"49154","MEAN_ANOMALY":"101.8410","REV_AT_EPOCH":"4836","DECAY_DATE":null,"REF_FRAME":"TEME","RCS_SIZE":"LARGE","SITE":"AFWTR","EPHEMERIS_TYPE":"0","PERIAPSIS":"574.880","RA_OF_ASC_NODE":"27.0793","PERIOD":"96.210","MEAN_MOTION_DDOT":"0.0000000000000","MEAN_MOTION_DOT":"-0.00000018","EPOCH":"2022-07-18T21:26:53.951136","TIME_SYSTEM":"UTC","SEMIMAJOR_AXIS":"6955.165","LAUNCH_DATE":"2021-09-14","ECCENTRICITY":"0.00030920","CENTER_NAME":"EARTH"},{"COUNTRY_CODE":"US","MEAN_MOTION":"14.96910908","APOAPSIS":"578.430","ELEMENT_SET_NO":"999","ARG_OF_PERICENTER":"263.9940","FILE":"3517175","OBJECT_ID":"2021-082AB","MEAN_ELEMENT_THEORY":"SGP4","INCLINATION":"70.0003","TLE_LINE2":"2 49155  70.0003   6.8350 0002847 263.9940  96.0894 14.96910908 48861","TLE_LINE1":"1 49155U 21082AB  22199.88339300  .00006601  00000-0  58124-3 0  9990","OBJECT_NAME":"STARLINK-3060","OBJECT_TYPE":"PAYLOAD","EPHEMERIS_TYPE":"0","SITE":"AFWTR","PERIOD":"96.198","RA_OF_ASC_NODE":"6.8350","PERIAPSIS":"574.470","TIME_SYSTEM":"UTC","EPOCH":"2022-07-18T21:12:05.155200","MEAN_MOTION_DOT":"0.00006601","MEAN_MOTION_DDOT":"0.0000000000000","CENTER_NAME":"EARTH","LAUNCH_DATE":"2021-09-14","SEMIMAJOR_AXIS":"6954.585","ECCENTRICITY":"0.00028470","BSTAR":"0.00058124000000","GP_ID":"208408141","CLASSIFICATION_TYPE":"U","MEAN_ANOMALY":"96.0894","NORAD_CAT_ID":"49155","REF_FRAME":"TEME","RCS_SIZE":"LARGE","DECAY_DATE":null,"REV_AT_EPOCH":"4886"},{"RCS_SIZE":"LARGE","REF_FRAME":"TEME","REV_AT_EPOCH":"4886","DECAY_DATE":null,"MEAN_ANOMALY":"94.2437","NORAD_CAT_ID":"49156","BSTAR":"0.00002809600000","CLASSIFICATION_TYPE":"U","GP_ID":"208408393","CENTER_NAME":"EARTH","LAUNCH_DATE":"2021-09-14","ECCENTRICITY":"0.00030680","SEMIMAJOR_AXIS":"6955.167","MEAN_MOTION_DOT":"0.00000230","TIME_SYSTEM":"UTC","EPOCH":"2022-07-18T20:45:39.949344","MEAN_MOTION_DDOT":"0.0000000000000","RA_OF_ASC_NODE":"6.8981","PERIOD":"96.210","PERIAPSIS":"574.898","SITE":"AFWTR","EPHEMERIS_TYPE":"0","OBJECT_NAME":"STARLINK-3085","OBJECT_TYPE":"PAYLOAD","TLE_LINE1":"1 49156U 21082AC  22199.86504571  .00000230  00000-0  28096-4 0  9991","TLE_LINE2":"2 49156  70.0002   6.8981 0003068 265.8371  94.2437 14.96722868 48865","OBJECT_ID":"2021-082AC","MEAN_ELEMENT_THEORY":"SGP4","FILE":"3517175","ARG_OF_PERICENTER":"265.8371","INCLINATION":"70.0002","APOAPSIS":"579.166","ELEMENT_SET_NO":"999","MEAN_MOTION":"14.96722868","COUNTRY_CODE":"US"},{"TLE_LINE2":"2 49157  69.9981  27.0918 0003078 244.7357 115.3482 14.96727481 48383","TLE_LINE1":"1 49157U 21082AD  22199.88881447 -.00003657  00000-0 -31161-3 0  9998","OBJECT_NAME":"STARLINK-3051","OBJECT_TYPE":"PAYLOAD","COUNTRY_CODE":"US","MEAN_MOTION":"14.96727481","ELEMENT_SET_NO":"999","APOAPSIS":"579.159","INCLINATION":"69.9981","ARG_OF_PERICENTER":"244.7357","FILE":"3517175","MEAN_ELEMENT_THEORY":"SGP4","OBJECT_ID":"2021-082AD","CLASSIFICATION_TYPE":"U","GP_ID":"208408631","BSTAR":"-0.00031161000000","NORAD_CAT_ID":"49157","MEAN_ANOMALY":"115.3482","REV_AT_EPOCH":"4838","DECAY_DATE":null,"RCS_SIZE":"LARGE","REF_FRAME":"TEME","EPHEMERIS_TYPE":"0","SITE":"AFWTR","PERIAPSIS":"574.877","PERIOD":"96.210","RA_OF_ASC_NODE":"27.0918","MEAN_MOTION_DDOT":"0.0000000000000","EPOCH":"2022-07-18T21:19:53.570208","TIME_SYSTEM":"UTC","MEAN_MOTION_DOT":"-0.00003657","SEMIMAJOR_AXIS":"6955.153","LAUNCH_DATE":"2021-09-14","ECCENTRICITY":"0.00030780","CENTER_NAME":"EARTH"},{"TLE_LINE2":"2 49158  70.0024  27.1080 0003348 265.7800  94.2975 14.96748161 48382","TLE_LINE1":"1 49158U 21082AE  22199.88302969  .00011784  00000-0  10349-2 0  9998","OBJECT_TYPE":"PAYLOAD","OBJECT_NAME":"STARLINK-3083","COUNTRY_CODE":"US","MEAN_MOTION":"14.96748161","APOAPSIS":"579.282","ELEMENT_SET_NO":"999","ARG_OF_PERICENTER":"265.7800","FILE":"3517175","OBJECT_ID":"2021-082AE","MEAN_ELEMENT_THEORY":"SGP4","INCLINATION":"70.0024","BSTAR":"0.00103490000000","CLASSIFICATION_TYPE":"U","GP_ID":"208407392","MEAN_ANOMALY":"94.2975","NORAD_CAT_ID":"49158","REF_FRAME":"TEME","RCS_SIZE":"LARGE","REV_AT_EPOCH":"4838","DECAY_DATE":null,"EPHEMERIS_TYPE":"0","SITE":"AFWTR","PERIOD":"96.209","RA_OF_ASC_NODE":"27.1080","PERIAPSIS":"574.625","EPOCH":"2022-07-18T21:11:33.765216","TIME_SYSTEM":"UTC","MEAN_MOTION_DOT":"0.00011784","MEAN_MOTION_DDOT":"0.0000000000000","CENTER_NAME":"EARTH","SEMIMAJOR_AXIS":"6955.089","LAUNCH_DATE":"2021-09-14","ECCENTRICITY":"0.00033480"}];
